CCSDS_OMM_VERS = 2.0
CREATION_DATE  = 
ORIGINATOR     = 

OBJECT_NAME    = SL-3 R/B
OBJECT_ID      = 1982-079B
CENTER_NAME    = EARTH
REF_FRAME      = TEME
TIME_SYSTEM    = UTC
MEAN_ELEMENT_THEORY = SGP/SGP4

EPOCH          = 2026-02-07T22:26:24.917568
MEAN_MOTION    = 15.24363293
ECCENTRICITY   = .00241124
INCLINATION    = 81.1442
RA_OF_ASC_NODE = 228.2010
ARG_OF_PERICENTER = 267.1311
MEAN_ANOMALY   = 92.7163

EPHEMERIS_TYPE = 0
CLASSIFICATION_TYPE = U
NORAD_CAT_ID   = 13403
ELEMENT_SET_NO = 999
REV_AT_EPOCH   = 37316
BSTAR          = .27196068E-3
MEAN_MOTION_DOT = .6737E-4
MEAN_MOTION_DDOT = 0

CCSDS_OMM_VERS = 2.0
CREATION_DATE  = 
ORIGINATOR     = 

OBJECT_NAME    = SL-14 R/B
OBJECT_ID      = 1982-092B
CENTER_NAME    = EARTH
REF_FRAME      = TEME
TIME_SYSTEM    = UTC
MEAN_ELEMENT_THEORY = SGP/SGP4

EPOCH          = 2026-02-07T20:04:25.415328
MEAN_MOTION    = 14.86633146
ECCENTRICITY   = .00213694
INCLINATION    = 82.5702
RA_OF_ASC_NODE = 169.3133
ARG_OF_PERICENTER = 43.5235
MEAN_ANOMALY   = 70.5753

EPHEMERIS_TYPE = 0
CLASSIFICATION_TYPE = U
NORAD_CAT_ID   = 13553
ELEMENT_SET_NO = 999
REV_AT_EPOCH   = 32449
BSTAR          = .84099406E-4
MEAN_MOTION_DOT = .774E-5
MEAN_MOTION_DDOT = 0

CCSDS_OMM_VERS = 2.0
CREATION_DATE  = 
ORIGINATOR     = 

OBJECT_NAME    = SL-3 R/B
OBJECT_ID      = 1983-010B
CENTER_NAME    = EARTH
REF_FRAME      = TEME
TIME_SYSTEM    = UTC
MEAN_ELEMENT_THEORY = SGP/SGP4

EPOCH          = 2026-02-07T23:37:02.270784
MEAN_MOTION    = 15.45302125
ECCENTRICITY   = .00179114
INCLINATION    = 81.1026
RA_OF_ASC_NODE = 38.6381
ARG_OF_PERICENTER = 145.4935
MEAN_ANOMALY   = 214.7476

EPHEMERIS_TYPE = 0
CLASSIFICATION_TYPE = U
NORAD_CAT_ID   = 13819
ELEMENT_SET_NO = 999
REV_AT_EPOCH   = 35335
BSTAR          = .32864787E-3
MEAN_MOTION_DOT = .15788E-3
MEAN_MOTION_DDOT = 0

CCSDS_OMM_VERS = 2.0
CREATION_DATE  = 
ORIGINATOR     = 

OBJECT_NAME    = SL-3 R/B
OBJECT_ID      = 1983-075B
CENTER_NAME    = EARTH
REF_FRAME      = TEME
TIME_SYSTEM    = UTC
MEAN_ELEMENT_THEORY = SGP/SGP4

EPOCH          = 2026-02-07T22:54:20.700864
MEAN_MOTION    = 15.37647905
ECCENTRICITY   = .00212014
INCLINATION    = 97.6136
RA_OF_ASC_NODE = 42.4287
ARG_OF_PERICENTER = 341.6502
MEAN_ANOMALY   = 18.3975

EPHEMERIS_TYPE = 0
CLASSIFICATION_TYPE = U
NORAD_CAT_ID   = 14208
ELEMENT_SET_NO = 999
REV_AT_EPOCH   = 32558
BSTAR          = .36479433E-3
MEAN_MOTION_DOT = .13504E-3
MEAN_MOTION_DDOT = 0

CCSDS_OMM_VERS = 2.0
CREATION_DATE  = 
ORIGINATOR     = 

OBJECT_NAME    = COSMOS 1536
OBJECT_ID      = 1984-013A
CENTER_NAME    = EARTH
REF_FRAME      = TEME
TIME_SYSTEM    = UTC
MEAN_ELEMENT_THEORY = SGP/SGP4

EPOCH          = 2026-02-07T18:31:36.697728
MEAN_MOTION    = 15.23427809
ECCENTRICITY   = .00149875
INCLINATION    = 82.5469
RA_OF_ASC_NODE = 137.5737
ARG_OF_PERICENTER = 32.8756
MEAN_ANOMALY   = 327.3410

EPHEMERIS_TYPE = 0
CLASSIFICATION_TYPE = U
NORAD_CAT_ID   = 14699
ELEMENT_SET_NO = 999
REV_AT_EPOCH   = 26806
BSTAR          = .33104739E-3
MEAN_MOTION_DOT = .7938E-4
MEAN_MOTION_DDOT = 0

CCSDS_OMM_VERS = 2.0
CREATION_DATE  = 
ORIGINATOR     = 

OBJECT_NAME    = SL-14 R/B
OBJECT_ID      = 1984-027B
CENTER_NAME    = EARTH
REF_FRAME      = TEME
TIME_SYSTEM    = UTC
MEAN_ELEMENT_THEORY = SGP/SGP4

EPOCH          = 2026-02-07T17:27:52.250112
MEAN_MOTION    = 14.85947233
ECCENTRICITY   = .00194887
INCLINATION    = 82.5400
RA_OF_ASC_NODE = 273.1198
ARG_OF_PERICENTER = 74.0635
MEAN_ANOMALY   = 286.2727

EPHEMERIS_TYPE = 0
CLASSIFICATION_TYPE = U
NORAD_CAT_ID   = 14820
ELEMENT_SET_NO = 999
REV_AT_EPOCH   = 24318
BSTAR          = .62192599E-4
MEAN_MOTION_DOT = .569E-5
MEAN_MOTION_DDOT = 0

CCSDS_OMM_VERS = 2.0
CREATION_DATE  = 
ORIGINATOR     = 

OBJECT_NAME    = SL-8 R/B
OBJECT_ID      = 1985-006B
CENTER_NAME    = EARTH
REF_FRAME      = TEME
TIME_SYSTEM    = UTC
MEAN_ELEMENT_THEORY = SGP/SGP4

EPOCH          = 2026-02-07T22:48:31.938624
MEAN_MOTION    = 14.37768309
ECCENTRICITY   = .00195308
INCLINATION    = 74.0473
RA_OF_ASC_NODE = 315.8708
ARG_OF_PERICENTER = 239.4162
MEAN_ANOMALY   = 197.4510

EPHEMERIS_TYPE = 0
CLASSIFICATION_TYPE = U
NORAD_CAT_ID   = 15483
ELEMENT_SET_NO = 999
REV_AT_EPOCH   = 14975
BSTAR          = .10752768E-3
MEAN_MOTION_DOT = .298E-5
MEAN_MOTION_DDOT = 0

CCSDS_OMM_VERS = 2.0
CREATION_DATE  = 
ORIGINATOR     = 

OBJECT_NAME    = SL-12 R/B(2)
OBJECT_ID      = 1985-042D
CENTER_NAME    = EARTH
REF_FRAME      = TEME
TIME_SYSTEM    = UTC
MEAN_ELEMENT_THEORY = SGP/SGP4

EPOCH          = 2026-02-07T17:39:45.451872
MEAN_MOTION    = 14.21973808
ECCENTRICITY   = .00349873
INCLINATION    = 71.1087
RA_OF_ASC_NODE = 151.0113
ARG_OF_PERICENTER = 176.0840
MEAN_ANOMALY   = 291.8229

EPHEMERIS_TYPE = 0
CLASSIFICATION_TYPE = U
NORAD_CAT_ID   = 15772
ELEMENT_SET_NO = 999
REV_AT_EPOCH   = 11013
BSTAR          = .10318653E-3
MEAN_MOTION_DOT = .182E-5
MEAN_MOTION_DDOT = 0

CCSDS_OMM_VERS = 2.0
CREATION_DATE  = 
ORIGINATOR     = 

OBJECT_NAME    = SL-14 R/B
OBJECT_ID      = 1985-069B
CENTER_NAME    = EARTH
REF_FRAME      = TEME
TIME_SYSTEM    = UTC
MEAN_ELEMENT_THEORY = SGP/SGP4

EPOCH          = 2026-02-07T12:28:11.794944
MEAN_MOTION    = 14.86397603
ECCENTRICITY   = .00173221
INCLINATION    = 82.5240
RA_OF_ASC_NODE = 53.3092
ARG_OF_PERICENTER = 294.5509
MEAN_ANOMALY   = 65.3902

EPHEMERIS_TYPE = 0
CLASSIFICATION_TYPE = U
NORAD_CAT_ID   = 15945
ELEMENT_SET_NO = 999
REV_AT_EPOCH   = 16835
BSTAR          = .73480359E-4
MEAN_MOTION_DOT = .674E-5
MEAN_MOTION_DDOT = 0

CCSDS_OMM_VERS = 2.0
CREATION_DATE  = 
ORIGINATOR     = 

OBJECT_NAME    = SL-16 R/B
OBJECT_ID      = 1985-097B
CENTER_NAME    = EARTH
REF_FRAME      = TEME
TIME_SYSTEM    = UTC
MEAN_ELEMENT_THEORY = SGP/SGP4

EPOCH          = 2026-02-07T21:58:43.620096
MEAN_MOTION    = 14.16596401
ECCENTRICITY   = .00095845
INCLINATION    = 71.0016
RA_OF_ASC_NODE = 203.2320
ARG_OF_PERICENTER = 294.5187
MEAN_ANOMALY   = 178.7757

EPHEMERIS_TYPE = 0
CLASSIFICATION_TYPE = U
NORAD_CAT_ID   = 16182
ELEMENT_SET_NO = 999
REV_AT_EPOCH   = 8301
BSTAR          = -.68941E-7
MEAN_MOTION_DOT = -.48E-6
MEAN_MOTION_DDOT = 0

CCSDS_OMM_VERS = 2.0
CREATION_DATE  = 
ORIGINATOR     = 

OBJECT_NAME    = SL-14 R/B
OBJECT_ID      = 1986-006B
CENTER_NAME    = EARTH
REF_FRAME      = TEME
TIME_SYSTEM    = UTC
MEAN_ELEMENT_THEORY = SGP/SGP4

EPOCH          = 2026-02-07T18:34:13.931904
MEAN_MOTION    = 14.86774312
ECCENTRICITY   = .00770114
INCLINATION    = 82.5269
RA_OF_ASC_NODE = 287.8951
ARG_OF_PERICENTER = 13.0335
MEAN_ANOMALY   = 347.2847

EPHEMERIS_TYPE = 0
CLASSIFICATION_TYPE = U
NORAD_CAT_ID   = 16496
ELEMENT_SET_NO = 999
REV_AT_EPOCH   = 14476
BSTAR          = .98045709E-4
MEAN_MOTION_DOT = .948E-5
MEAN_MOTION_DDOT = 0

CCSDS_OMM_VERS = 2.0
CREATION_DATE  = 
ORIGINATOR     = 

OBJECT_NAME    = COSMOS 1743
OBJECT_ID      = 1986-034A
CENTER_NAME    = EARTH
REF_FRAME      = TEME
TIME_SYSTEM    = UTC
MEAN_ELEMENT_THEORY = SGP/SGP4

EPOCH          = 2026-02-07T15:16:53.585184
MEAN_MOTION    = 15.56379282
ECCENTRICITY   = .0005128
INCLINATION    = 82.5329
RA_OF_ASC_NODE = 105.3161
ARG_OF_PERICENTER = 55.3863
MEAN_ANOMALY   = 304.7874

EPHEMERIS_TYPE = 0
CLASSIFICATION_TYPE = U
NORAD_CAT_ID   = 16719
ELEMENT_SET_NO = 999
REV_AT_EPOCH   = 17557
BSTAR          = .52843E-3
MEAN_MOTION_DOT = .37421E-3
MEAN_MOTION_DDOT = 0

